{"fetched_at":"2026-03-29T16:36:15Z","count":15609,"tles":[{"name":"STARLINK-4092","line1":"1 52838U 22062J   26087.82724872 -.00000204  00000+0  52487-5 0  9998","line2":"2 52838  53.2175 308.2008 0001301  98.3940 261.7199 15.08837972208678","category":"Starlink"}]}